stk.v.11.0
WrittenBy    formation-sat-exporter

BEGIN Ephemeris
    NumberOfEphemerisPoints 181
    ScenarioEpoch 21 Mar 2026 07:38:40.000000000 UTCG
    InterpolationMethod     Lagrange
    InterpolationOrder      7
    CentralBody             Earth
    CoordinateSystem        TEME
    DistanceUnit            Kilometers

    BEGIN EphemerisTimePosVel
        124.000000000  5.29850784557966e+03 -1.42074311965066e+03  4.24975236135708e+03 -4.75078923592297e+00 -5.45428908820031e-02  5.90495644651540e+00
        125.000000000  5.29375389622668e+03 -1.42079681413289e+03  4.25565478319126e+03 -4.75710663456144e+00 -5.28460415557492e-02  5.89988370136637e+00
        126.000000000  5.28899363231054e+03 -1.42084881173377e+03  4.26155212875981e+03 -4.76341835847823e+00 -5.11491291899001e-02  5.89480391828623e+00
        127.000000000  5.28422705950973e+03 -1.42089911239127e+03  4.26744439102783e+03 -4.76972440014547e+00 -4.94521558084525e-02  5.88971710333275e+00
        128.000000000  5.27945418351025e+03 -1.42094771604539e+03  4.27333156296648e+03 -4.77602475204039e+00 -4.77551234358689e-02  5.88462326257443e+00
        129.000000000  5.27467501000565e+03 -1.42099462263814e+03  4.27921363755298e+03 -4.78231940664537e+00 -4.60580340968445e-02  5.87952240208862e+00
        130.000000000  5.26988954469696e+03 -1.42103983211358e+03  4.28509060777066e+03 -4.78860835645348e+00 -4.43608898151433e-02  5.87441452795919e+00
        131.000000000  5.26509779329274e+03 -1.42108334441777e+03  4.29096246660890e+03 -4.79489159396291e+00 -4.26636926158099e-02  5.86929964627977e+00
        132.000000000  5.26029976150903e+03 -1.42112515949881e+03  4.29682920706322e+03 -4.80116911167791e+00 -4.09664445229573e-02  5.86417776315101e+00
        133.000000000  5.25549545506938e+03 -1.42116527730682e+03  4.30269082213520e+03 -4.80744090211066e+00 -3.92691475616302e-02  5.85904888468376e+00
        134.000000000  5.25068487970481e+03 -1.42120369779394e+03  4.30854730483258e+03 -4.81370695777843e+00 -3.75718037566403e-02  5.85391301699588e+00
        135.000000000  5.24586804115383e+03 -1.42124042091433e+03  4.31439864816920e+03 -4.81996727120597e+00 -3.58744151321007e-02  5.84877016621316e+00
        136.000000000  5.24104494516240e+03 -1.42127544662420e+03  4.32024484516501e+03 -4.82622183492687e+00 -3.41769837136380e-02  5.84362033847207e+00
        137.000000000  5.23621559748397e+03 -1.42130877488176e+03  4.32608588884614e+03 -4.83247064147983e+00 -3.24795115255984e-02  5.83846353991469e+00
        138.000000000  5.23138000387944e+03 -1.42134040564725e+03  4.33192177224484e+03 -4.83871368341101e+00 -3.07820005926769e-02  5.83329977669241e+00
        139.000000000  5.22653817011715e+03 -1.42137033888294e+03  4.33775248839952e+03 -4.84495095327217e+00 -2.90844529401511e-02  5.82812905496499e+00
        140.000000000  5.22169010197290e+03 -1.42139857455313e+03  4.34357803035477e+03 -4.85118244362343e+00 -2.73868705931818e-02  5.82295138090197e+00
        141.000000000  5.21683580522990e+03 -1.42142511262413e+03  4.34939839116133e+03 -4.85740814703098e+00 -2.56892555765808e-02  5.81776676067850e+00
        142.000000000  5.21197528567883e+03 -1.42144995306428e+03  4.35521356387613e+03 -4.86362805606844e+00 -2.39916099151596e-02  5.81257520047855e+00
        143.000000000  5.20710854911777e+03 -1.42147309584396e+03  4.36102354156229e+03 -4.86984216331598e+00 -2.22939356346615e-02  5.80737670649728e+00
        144.000000000  5.20223560135220e+03 -1.42149454093555e+03  4.36682831728912e+03 -4.87605046136165e+00 -2.05962347598979e-02  5.80217128493451e+00
        145.000000000  5.19735644819504e+03 -1.42151428831348e+03  4.37262788413215e+03 -4.88225294279959e+00 -1.88985093155643e-02  5.79695894199936e+00
        146.000000000  5.19247109546660e+03 -1.42153233795418e+03  4.37842223517312e+03 -4.88844960022764e+00 -1.72007613277528e-02  5.79173968390981e+00
        147.000000000  5.18757954899459e+03 -1.42154868983614e+03  4.38421136349997e+03 -4.89464042625902e+00 -1.55029928210424e-02  5.78651351689361e+00
        148.000000000  5.18268181461408e+03 -1.42156334393983e+03  4.38999526220691e+03 -4.90082541350601e+00 -1.38052058208268e-02  5.78128044718271e+00
        149.000000000  5.17777789816758e+03 -1.42157630024778e+03  4.39577392439434e+03 -4.90700455458881e+00 -1.21074023528490e-02  5.77604048102070e+00
        150.000000000  5.17286780550491e+03 -1.42158755874453e+03  4.40154734316895e+03 -4.91317784214020e+00 -1.04095844418043e-02  5.77079362465907e+00
        151.000000000  5.16795154248329e+03 -1.42159711941666e+03  4.40731551164366e+03 -4.91934526879387e+00 -8.71175411320291e-03  5.76553988435492e+00
        152.000000000  5.16302911496732e+03 -1.42160498225276e+03  4.41307842293766e+03 -4.92550682719285e+00 -7.01391339220572e-03  5.76027926637605e+00
        153.000000000  5.15810052882891e+03 -1.42161114724345e+03  4.41883607017641e+03 -4.93166250998666e+00 -5.31606430478860e-03  5.75501177699910e+00
        154.000000000  5.15316578994735e+03 -1.42161561438137e+03  4.42458844649166e+03 -4.93781230983278e+00 -3.61820887587965e-03  5.74973742250679e+00
        155.000000000  5.14822490420924e+03 -1.42161838366120e+03  4.43033554502142e+03 -4.94395621939655e+00 -1.92034913040698e-03  5.74445620918926e+00
        156.000000000  5.14327787750855e+03 -1.42161945507963e+03  4.43607735891003e+03 -4.95009423134755e+00 -2.22487094462849e-04  5.73916814334830e+00
        157.000000000  5.13832471574655e+03 -1.42161882863539e+03  4.44181388130812e+03 -4.95622633836325e+00  1.47537520690821e-03  5.73387323129270e+00
        158.000000000  5.13336542483183e+03 -1.42161650432922e+03  4.44754510537262e+03 -4.96235253312858e+00  3.17323574842885e-03  5.72857147933682e+00
        159.000000000  5.12840001068029e+03 -1.42161248216389e+03  4.45327102426679e+03 -4.96847280833684e+00  4.87109250447247e-03  5.72326289380621e+00
        160.000000000  5.12342847921515e+03 -1.42160676214421e+03  4.45899163116023e+03 -4.97458715668740e+00  6.56894344987813e-03  5.71794748103339e+00
        161.000000000  5.11845083636692e+03 -1.42159934427699e+03  4.46470691922886e+03 -4.98069557088520e+00  8.26678655936848e-03  5.71262524735741e+00
        162.000000000  5.11346708807338e+03 -1.42159022857109e+03  4.47041688165495e+03 -4.98679804364452e+00  9.96461980731692e-03  5.70729619912896e+00
        163.000000000  5.10847724027963e+03 -1.42157941503737e+03  4.47612151162712e+03 -4.99289456768520e+00  1.16624411684461e-02  5.70196034270618e+00
        164.000000000  5.10348129893801e+03 -1.42156690368875e+03  4.48182080234036e+03 -4.99898513573501e+00  1.33602486178279e-02  5.69661768445140e+00
        165.000000000  5.09847927000816e+03 -1.42155269454014e+03  4.48751474699602e+03 -5.00506974052871e+00  1.50580401296029e-02  5.69126823073905e+00
        166.000000000  5.09347115945695e+03 -1.42153678760849e+03  4.49320333880184e+03 -5.01114837480709e+00  1.67558136788430e-02  5.68591198795010e+00
        167.000000000  5.08845697325854e+03 -1.42151918291278e+03  4.49888657097192e+03 -5.01722103132075e+00  1.84535672401544e-02  5.68054896247433e+00
        168.000000000  5.08343671739431e+03 -1.42149988047401e+03  4.50456443672679e+03 -5.02328770282446e+00  2.01512987882597e-02  5.67517916071089e+00
        169.000000000  5.07841039785289e+03 -1.42147888031521e+03  4.51023692929334e+03 -5.02934838208044e+00  2.18490062981145e-02  5.66980258906214e+00
        170.000000000  5.07337802063015e+03 -1.42145618246141e+03  4.51590404190491e+03 -5.03540306186024e+00  2.35466877443250e-02  5.66441925394395e+00
        171.000000000  5.06833959172917e+03 -1.42143178693972e+03  4.52156576780123e+03 -5.04145173494145e+00  2.52443411020795e-02  5.65902916177735e+00
        172.000000000  5.06329511716027e+03 -1.42140569377921e+03  4.52722210022847e+03 -5.04749439410865e+00  2.69419643458677e-02  5.65363231899124e+00
        173.000000000  5.05824460294096e+03 -1.42137790301102e+03  4.53287303243921e+03 -5.05353103215247e+00  2.86395554507617e-02  5.64822873202572e+00
        174.000000000  5.05318805509596e+03 -1.42134841466831e+03  4.53851855769252e+03 -5.05956164187240e+00  3.03371123917168e-02  5.64281840732601e+00
        175.000000000  5.04812547965721e+03 -1.42131722878624e+03  4.54415866925387e+03 -5.06558621607488e+00  3.20346331436886e-02  5.63740135134384e+00
        176.000000000  5.04305688266381e+03 -1.42128434540202e+03  4.54979336039521e+03 -5.07160474757338e+00  3.37321156817488e-02  5.63197757054353e+00
        177.000000000  5.03798227016206e+03 -1.42124976455488e+03  4.55542262439495e+03 -5.07761722918786e+00  3.54295579810860e-02  5.62654707139498e+00
        178.000000000  5.03290164820544e+03 -1.42121348628606e+03  4.56104645453799e+03 -5.08362365374574e+00  3.71269580166554e-02  5.62110986037552e+00
        179.000000000  5.02781502285457e+03 -1.42117551063884e+03  4.56666484411570e+03 -5.08962401408376e+00  3.88243137638783e-02  5.61566594397090e+00
        180.000000000  5.02272240017727e+03 -1.42113583765853e+03  4.57227778642594e+03 -5.09262267730292e+00  3.96729803124908e-02  5.61294231023267e+00
    END EphemerisTimePosVel
END Ephemeris
